{
  "type": "FeatureCollection",
  "features": [
    {
      "type": "Feature",
      "properties": {
        "norad_id": 41890,
        "name": "CYGFM07",
        "group": "weather",
        "lat": -34.43937573100947,
        "lon": -4.675153198988158,
        "alt_km": 424.7466120155441,
        "timestamp": "2025-12-04T15:47:53.739332+00:00",
        "meta_object_name": "CYGFM07",
        "meta_object_id": "2016-078G",
        "meta_epoch": "2025-12-04T06:52:10.066368",
        "meta_mean_motion": 15.49480365,
        "meta_eccentricity": 0.00090582,
        "meta_inclination": 34.9472,
        "meta_ra_of_asc_node": 76.8566,
        "meta_arg_of_pericenter": 138.1908,
        "meta_mean_anomaly": 221.9508,
        "meta_ephemeris_type": 0,
        "meta_classification_type": "U",
        "meta_norad_cat_id": 41890,
        "meta_element_set_no": 999,
        "meta_rev_at_epoch": 49864,
        "meta_bstar": 0.00074110261,
        "meta_mean_motion_dot": 0.00042306,
        "meta_mean_motion_ddot": 0,
        "tle_line1": "1 41890U 16078G   25338.28622762  .00042306  00000+0  74110-3 0  9990",
        "tle_line2": "2 41890  34.9472  76.8566 0009058 138.1908 221.9508 15.49480365498646"
      },
      "geometry": {
        "type": "Point",
        "coordinates": [
          -4.675153198988158,
          -34.43937573100947
        ]
      }
    },
    {
      "type": "Feature",
      "properties": {
        "norad_id": 41891,
        "name": "CYGFM03",
        "group": "weather",
        "lat": 30.817976121865836,
        "lon": -162.35947578763765,
        "alt_km": 407.1474087541701,
        "timestamp": "2025-12-04T15:47:53.739344+00:00",
        "meta_object_name": "CYGFM03",
        "meta_object_id": "2016-078H",
        "meta_epoch": "2025-12-03T17:38:56.092416",
        "meta_mean_motion": 15.49341165,
        "meta_eccentricity": 0.00083321,
        "meta_inclination": 34.9427,
        "meta_ra_of_asc_node": 82.3773,
        "meta_arg_of_pericenter": 119.5698,
        "meta_mean_anomaly": 240.5855,
        "meta_ephemeris_type": 0,
        "meta_classification_type": "U",
        "meta_norad_cat_id": 41891,
        "meta_element_set_no": 999,
        "meta_rev_at_epoch": 49853,
        "meta_bstar": 0.00061975567,
        "meta_mean_motion_dot": 0.00035157,
        "meta_mean_motion_ddot": 0,
        "tle_line1": "1 41891U 16078H   25337.73537144  .00035157  00000+0  61976-3 0  9991",
        "tle_line2": "2 41891  34.9427  82.3773 0008332 119.5698 240.5855 15.49341165498536"
      },
      "geometry": {
        "type": "Point",
        "coordinates": [
          -162.35947578763765,
          30.817976121865836
        ]
      }
    },
    {
      "type": "Feature",
      "properties": {
        "norad_id": 43010,
        "name": "FENGYUN 3D",
        "group": "weather",
        "lat": 51.65023207181215,
        "lon": 136.3878183637681,
        "alt_km": 821.5701024341415,
        "timestamp": "2025-12-04T15:47:53.739354+00:00",
        "meta_object_name": "FENGYUN 3D",
        "meta_object_id": "2017-072A",
        "meta_epoch": "2025-12-04T08:26:03.939072",
        "meta_mean_motion": 14.19680148,
        "meta_eccentricity": 6.367e-05,
        "meta_inclination": 98.9881,
        "meta_ra_of_asc_node": 304.5366,
        "meta_arg_of_pericenter": 215.0808,
        "meta_mean_anomaly": 145.0326,
        "meta_ephemeris_type": 0,
        "meta_classification_type": "U",
        "meta_norad_cat_id": 43010,
        "meta_element_set_no": 999,
        "meta_rev_at_epoch": 41734,
        "meta_bstar": 0.00012711186,
        "meta_mean_motion_dot": 2.23e-06,
        "meta_mean_motion_ddot": 0,
        "tle_line1": "1 43010U 17072A   25338.35143448  .00000223  00000+0  12711-3 0  9999",
        "tle_line2": "2 43010  98.9881 304.5366 0000636 215.0808 145.0326 14.19680148417341"
      },
      "geometry": {
        "type": "Point",
        "coordinates": [
          136.3878183637681,
          51.65023207181215
        ]
      }
    },
    {
      "type": "Feature",
      "properties": {
        "norad_id": 43013,
        "name": "NOAA 20 (JPSS-1)",
        "group": "weather",
        "lat": -73.16057681351269,
        "lon": -54.33477213217077,
        "alt_km": 835.7381879953755,
        "timestamp": "2025-12-04T15:47:53.739365+00:00",
        "meta_object_name": "NOAA 20 (JPSS-1)",
        "meta_object_id": "2017-073A",
        "meta_epoch": "2025-12-04T07:41:43.934496",
        "meta_mean_motion": 14.19522364,
        "meta_eccentricity": 0.0002079,
        "meta_inclination": 98.7587,
        "meta_ra_of_asc_node": 274.71,
        "meta_arg_of_pericenter": 99.2685,
        "meta_mean_anomaly": 260.8726,
        "meta_ephemeris_type": 0,
        "meta_classification_type": "U",
        "meta_norad_cat_id": 43013,
        "meta_element_set_no": 999,
        "meta_rev_at_epoch": 41682,
        "meta_bstar": 0.00011180602,
        "meta_mean_motion_dot": 1.92e-06,
        "meta_mean_motion_ddot": 0,
        "tle_line1": "1 43013U 17073A   25338.32064739  .00000192  00000+0  11181-3 0  9990",
        "tle_line2": "2 43013  98.7587 274.7100 0002079  99.2685 260.8726 14.19522364416824"
      },
      "geometry": {
        "type": "Point",
        "coordinates": [
          -54.33477213217077,
          -73.16057681351269
        ]
      }
    },
    {
      "type": "Feature",
      "properties": {
        "norad_id": 43226,
        "name": "GOES 17",
        "group": "weather",
        "lat": 0.29850240074859935,
        "lon": -138.8467317559562,
        "alt_km": 35776.77400436979,
        "timestamp": "2025-12-04T15:47:53.739377+00:00",
        "meta_object_name": "GOES 17",
        "meta_object_id": "2018-022A",
        "meta_epoch": "2025-12-04T06:27:05.483808",
        "meta_mean_motion": 1.00271208,
        "meta_eccentricity": 0.00034717,
        "meta_inclination": 0.4363,
        "meta_ra_of_asc_node": 89.312,
        "meta_arg_of_pericenter": 181.9959,
        "meta_mean_anomaly": 169.3108,
        "meta_ephemeris_type": 0,
        "meta_classification_type": "U",
        "meta_norad_cat_id": 43226,
        "meta_element_set_no": 999,
        "meta_rev_at_epoch": 2846,
        "meta_bstar": 0,
        "meta_mean_motion_dot": -1.67e-06,
        "meta_mean_motion_ddot": 0,
        "tle_line1": "1 43226U 18022A   25338.26881347 -.00000167  00000+0  00000+0 0  9993",
        "tle_line2": "2 43226   0.4363  89.3120 0003471 181.9959 169.3108  1.00271208 28464"
      },
      "geometry": {
        "type": "Point",
        "coordinates": [
          -138.8467317559562,
          0.29850240074859935
        ]
      }
    },
    {
      "type": "Feature",
      "properties": {
        "norad_id": 43491,
        "name": "FENGYUN 2H",
        "group": "weather",
        "lat": -1.9506376609775016,
        "lon": 30.091145171248236,
        "alt_km": 35796.67859315613,
        "timestamp": "2025-12-04T15:47:53.739397+00:00",
        "meta_object_name": "FENGYUN 2H",
        "meta_object_id": "2018-050A",
        "meta_epoch": "2025-12-04T02:07:07.068000",
        "meta_mean_motion": 1.00271345,
        "meta_eccentricity": 0.0002919,
        "meta_inclination": 2.5269,
        "meta_ra_of_asc_node": 81.4248,
        "meta_arg_of_pericenter": 163.007,
        "meta_mean_anomaly": 299.8746,
        "meta_ephemeris_type": 0,
        "meta_classification_type": "U",
        "meta_norad_cat_id": 43491,
        "meta_element_set_no": 999,
        "meta_rev_at_epoch": 2748,
        "meta_bstar": 0,
        "meta_mean_motion_dot": -1.15e-06,
        "meta_mean_motion_ddot": 0,
        "tle_line1": "1 43491U 18050A   25338.08827625 -.00000115  00000+0  00000+0 0  9990",
        "tle_line2": "2 43491   2.5269  81.4248 0002919 163.0070 299.8746  1.00271345 27481"
      },
      "geometry": {
        "type": "Point",
        "coordinates": [
          30.091145171248236,
          -1.9506376609775016
        ]
      }
    },
    {
      "type": "Feature",
      "properties": {
        "norad_id": 43689,
        "name": "METOP-C",
        "group": "weather",
        "lat": 7.830637375389429,
        "lon": 35.34537352181271,
        "alt_km": 821.2818346710164,
        "timestamp": "2025-12-04T15:47:53.739409+00:00",
        "meta_object_name": "METOP-C",
        "meta_object_id": "2018-087A",
        "meta_epoch": "2025-12-04T07:18:52.542720",
        "meta_mean_motion": 14.21507124,
        "meta_eccentricity": 0.00016719,
        "meta_inclination": 98.6942,
        "meta_ra_of_asc_node": 36.2031,
        "meta_arg_of_pericenter": 56.1854,
        "meta_mean_anomaly": 303.9483,
        "meta_ephemeris_type": 0,
        "meta_classification_type": "U",
        "meta_norad_cat_id": 43689,
        "meta_element_set_no": 999,
        "meta_rev_at_epoch": 36714,
        "meta_bstar": 0.00016383342,
        "meta_mean_motion_dot": 3.15e-06,
        "meta_mean_motion_ddot": 0,
        "tle_line1": "1 43689U 18087A   25338.30477480  .00000315  00000+0  16383-3 0  9990",
        "tle_line2": "2 43689  98.6942  36.2031 0001671  56.1854 303.9483 14.21507124367147"
      },
      "geometry": {
        "type": "Point",
        "coordinates": [
          35.34537352181271,
          7.830637375389429
        ]
      }
    }
  ]
}